H1 CPF 01  gfz 2022 10 03 00  7761 tandemx   
H2 1003001  6202 36605    2022 10 03 00 59 42 2022 10 08 00 00 42   120 1 1  0 0 0
H9
10 0 59858  42462.000000  0     175391.384   5636710.921   3947135.198
10 0 59858  42582.000000  0     346017.550   5063440.383   4648319.670
10 0 59858  42702.000000  0     499765.593   4398850.070   5267697.970
10 0 59858  42822.000000  0     632458.564   3654912.421   5794403.974
10 0 59858  42942.000000  0     740511.754   2845046.387   6219210.051
10 0 59858  43062.000000  0     821017.209   1983867.380   6534683.714
10 0 59858  43182.000000  0     871811.838   1086918.599   6735311.675
10 0 59858  43302.000000  0     891527.906    170387.514   6817590.113
10 0 59858  43422.000000  0     879624.979   -749185.410   6780081.751
10 0 59858  43542.000000  0     836402.562  -1655204.823   6623440.777
10 0 59858  43662.000000  0     762993.271  -2531319.840   6350402.395
10 0 59858  43782.000000  0     661336.656  -3361720.416   5965738.526
10 0 59858  43902.000000  0     534133.648  -4131424.644   5476176.856
10 0 59858  44022.000000  0     384784.128  -4826550.789   4890288.648
10 0 59858  44142.000000  0     217308.035  -5434573.269   4218346.234
10 0 59858  44262.000000  0      36250.183  -5944558.609   3472148.171
10 0 59858  44382.000000  0    -153429.214  -6347372.597   2664813.849
10 0 59858  44502.000000  0    -346475.094  -6635853.867   1810551.362
10 0 59858  44622.000000  0    -537466.629  -6804949.436    924404.757
10 0 59858  44742.000000  0    -720951.820  -6851811.875     21982.398
10 0 59858  44862.000000  0    -891584.188  -6775849.600   -880828.101
10 0 59858  44982.000000  0   -1044256.930  -6578730.517  -1768148.821
10 0 59858  45102.000000  0   -1174231.730  -6264340.944  -2624398.107
10 0 59858  45222.000000  0   -1277259.589  -5838701.460  -3434570.112
10 0 59858  45342.000000  0   -1349690.353  -5309840.710  -4184501.359
10 0 59858  45462.000000  0   -1388567.933  -4687630.918  -4861117.549
10 0 59858  45582.000000  0   -1391709.393  -3983591.653  -5452656.022
10 0 59858  45702.000000  0   -1357766.497  -3210667.011  -5948862.101
10 0 59858  45822.000000  0   -1286268.498  -2382980.705  -6341157.015
10 0 59858  45942.000000  0   -1177645.690  -1515573.869  -6622774.781
10 0 59858  46062.000000  0   -1033233.918   -624132.078  -6788867.429
10 0 59858  46182.000000  0    -855260.187    275294.681  -6836579.503
10 0 59858  46302.000000  0    -646808.411   1166574.586  -6765090.858
10 0 59858  46422.000000  0    -411767.010   2033775.521  -6575629.028
10 0 59858  46542.000000  0    -154759.459   2861442.369  -6271450.922
10 0 59858  46662.000000  0     118942.948   3634868.085  -5857794.662
10 0 59858  46782.000000  0     403524.999   4340353.779  -5341798.252
10 0 59858  46902.000000  0     692745.076   4965452.345  -4732387.505
10 0 59858  47022.000000  0     980065.397   5499194.318  -4040133.458
10 0 59858  47142.000000  0    1258792.864   5932289.550  -3277078.502
10 0 59858  47262.000000  0    1522227.228   6257299.960  -2456534.431
10 0 59858  47382.000000  0    1763813.633   6468780.046  -1592854.348
10 0 59858  47502.000000  0    1977296.148   6563380.368   -701181.282
10 0 59858  47622.000000  0    2156868.101   6539909.699    202821.679
10 0 59858  47742.000000  0    2297314.784   6399353.950   1103253.074
10 0 59858  47862.000000  0    2394145.442   6144851.729   1984260.405
10 0 59858  47982.000000  0    2443710.883   5781626.798   2830327.412
10 0 59858  48102.000000  0    2443304.106   5316879.443   3626555.006
10 0 59858  48222.000000  0    2391241.013   4759638.996   4358930.587
10 0 59858  48342.000000  0    2286918.483   4120580.390   5014580.442
10 0 59858  48462.000000  0    2130847.797   3411807.635   5581995.604
10 0 59858  48582.000000  0    1924665.891   2646617.284   6051229.199
10 0 59858  48702.000000  0    1671123.350   1839243.335   6414066.965
10 0 59858  48822.000000  0    1374048.164   1004586.850   6664165.843
10 0 59858  48942.000000  0    1038287.005    157937.918   6797157.579
10 0 59858  49062.000000  0     669625.767   -685303.292   6810720.067
10 0 59858  49182.000000  0     274689.630  -1509906.518   6704617.087
10 0 59858  49302.000000  0    -139176.258  -2301086.618   6480702.005
10 0 59858  49422.000000  0    -564043.349  -3044769.220   6142887.033
10 0 59858  49542.000000  0    -991549.863  -3727842.084   5697076.827
10 0 59858  49662.000000  0   -1413062.235  -4338387.262   5151070.858
10 0 59858  49782.000000  0   -1819848.139  -4865894.169   4514435.754
10 0 59858  49902.000000  0   -2203257.466  -5301449.561   3798344.164
10 0 59858  50022.000000  0   -2554906.278  -5637897.831   3015380.763
10 0 59858  50142.000000  0   -2866858.802  -5869965.712   2179320.176
10 0 59858  50262.000000  0   -3131803.617  -5994350.797   1304882.163
10 0 59858  50382.000000  0   -3343220.068  -6009771.616    407467.202
10 0 59858  50502.000000  0   -3495530.461  -5916977.141   -497122.100
10 0 59858  50622.000000  0   -3584234.199  -5718715.461  -1392968.139
10 0 59858  50742.000000  0   -3606020.220  -5419661.443  -2264327.516
10 0 59858  50862.000000  0   -3558854.946  -5026305.655  -3095915.271
10 0 59858  50982.000000  0   -3442043.239  -4546807.778  -3873177.792
10 0 59858  51102.000000  0   -3256261.175  -3990819.586  -4582547.906
10 0 59858  51222.000000  0   -3003561.259  -3369283.125  -5211678.216
10 0 59858  51342.000000  0   -2687350.492  -2694208.464  -5749649.201
10 0 59858  51462.000000  0   -2312342.307  -1978436.837  -6187149.232
10 0 59858  51582.000000  0   -1884482.966  -1235394.035  -6516625.455
10 0 59858  51702.000000  0   -1410854.264   -478838.524  -6732402.400
10 0 59858  51822.000000  0    -899556.072    277390.008  -6830768.241
10 0 59858  51942.000000  0    -359569.912   1019617.496  -6810031.367
10 0 59858  52062.000000  0     199395.447   1734576.332  -6670546.149
10 0 59858  52182.000000  0     767072.830   2409636.026  -6414708.558
10 0 59858  52302.000000  0    1332821.447   3033022.847  -6046921.293
10 0 59858  52422.000000  0    1885822.093   3594023.739  -5573525.323
10 0 59858  52542.000000  0    2415280.377   4083170.973  -5002700.858
10 0 59858  52662.000000  0    2910635.411   4492405.792  -4344337.859
10 0 59858  52782.000000  0    3361770.047   4815218.339  -3609875.344
10 0 59858  52902.000000  0    3759218.541   5046759.415  -2812111.383
10 0 59858  53022.000000  0    4094367.915   5183921.342  -1964985.207
10 0 59858  53142.000000  0    4359646.074   5225384.792  -1083335.388
10 0 59858  53262.000000  0    4548693.365   5171631.940   -182637.918
10 0 59858  53382.000000  0    4656512.424   5024921.782    721271.551
10 0 59858  53502.000000  0    4679590.455   4789229.038   1612483.171
10 0 59858  53622.000000  0    4615993.503   4470150.680   2475300.142
10 0 59858  53742.000000  0    4465430.014   4074778.898   3294525.339
10 0 59858  53862.000000  0    4229278.044   3611543.497   4055736.937
10 0 59858  53982.000000  0    3910578.784   3090029.220   4745546.178
10 0 59858  54102.000000  0    3513998.266   2520774.215   5351835.091
10 0 59858  54222.000000  0    3045753.163   1915051.534   5863969.124
10 0 59858  54342.000000  0    2513507.918   1284642.364   6272978.120
10 0 59858  54462.000000  0    1926244.989    641603.573   6571707.534
10 0 59858  54582.000000  0    1294109.762     -1963.261   6754936.789
10 0 59858  54702.000000  0     628233.126   -634138.330   6819466.598
10 0 59858  54822.000000  0     -59465.622  -1243404.908   6764171.777
10 0 59858  54942.000000  0    -756492.406  -1818858.840   6590019.011
10 0 59858  55062.000000  0   -1450005.068  -2350403.801   6300049.856
10 0 59858  55182.000000  0   -2127047.878  -2828928.067   5899329.733
10 0 59858  55302.000000  0   -2774792.075  -3246462.153   5394866.815
10 0 59858  55422.000000  0   -3380782.152  -3596316.054   4795497.228
10 0 59858  55542.000000  0   -3933180.314  -3873190.275   4111734.409
10 0 59858  55662.000000  0   -4421001.763  -4073259.207   3355587.803
10 0 59858  55782.000000  0   -4834337.588  -4194225.718   2540354.123
10 0 59858  55902.000000  0   -5164561.576  -4235346.085   1680383.115
10 0 59858  56022.000000  0   -5404514.313  -4197422.664    790820.142
10 0 59858  56142.000000  0   -5548659.603  -4082764.384   -112667.205
10 0 59858  56262.000000  0   -5593209.509  -3895116.534  -1014173.522
10 0 59858  56382.000000  0   -5536214.297  -3639561.094  -1897845.561
10 0 59858  56502.000000  0   -5377613.423  -3322389.188  -2748169.788
10 0 59858  56622.000000  0   -5119248.334  -2950951.351  -3550249.790
10 0 59858  56742.000000  0   -4764837.729  -2533489.115  -4290069.146
10 0 59858  56862.000000  0   -4319916.461  -2078952.529  -4954734.873
10 0 59858  56982.000000  0   -3791739.575  -1596808.338  -5532697.067
10 0 59858  57102.000000  0   -3189154.883  -1096842.824  -6013941.362
10 0 59858  57222.000000  0   -2522447.538   -588964.069  -6390151.621
10 0 59858  57342.000000  0   -1803159.701    -83008.026  -6654842.212
10 0 59858  57462.000000  0   -1043888.774    411447.859  -6803457.788
10 0 59858  57582.000000  0    -258069.949    885260.582  -6833442.507
10 0 59858  57702.000000  0     540256.025   1329886.366  -6744278.890
10 0 59858  57822.000000  0    1336686.441   1737529.869  -6537497.281
10 0 59858  57942.000000  0    2116711.428   2101278.946  -6216653.799
10 0 59858  58062.000000  0    2865973.406   2415220.882  -5787275.631
10 0 59858  58182.000000  0    3570527.963   2674538.574  -5256774.390
10 0 59858  58302.000000  0    4217101.997   2875585.667  -4634330.300
10 0 59858  58422.000000  0    4793347.366   3015939.891  -3930744.948
10 0 59858  58542.000000  0    5288082.534   3094431.804  -3158262.640
10 0 59858  58662.000000  0    5691516.441   3111148.985  -2330364.773
10 0 59858  58782.000000  0    5995452.256   3067415.797  -1461538.293
10 0 59858  58902.000000  0    6193462.352   2965746.016   -567021.028
99
